IRIDIUM 126             
1 42809U 17039G   25006.11725059  .00000325  00000+0  10884-3 0  9999
2 42809  86.3973 213.8662 0001776  84.1553 275.9845 14.34214549394414
IRIDIUM 124             
1 42810U 17039H   25005.79135140  .00001250  00000+0  36559-3 0  9995
2 42810  86.4522 150.8480 0002253 103.4938 256.6514 14.43286343399042
IRIDIUM 128             
1 42811U 17039J   25005.41030121  .00000364  00000+0  12284-3 0  9992
2 42811  86.3959 245.6667 0001916  93.9688 266.1727 14.34221331394331
IRIDIUM 121             
1 42812U 17039K   25006.55489841  .00000029  00000+0  33314-5 0  9993
2 42812  86.3971 213.7074 0002149  90.0466 270.0976 14.34213013394467
IRIDIUM 133             
1 42955U 17061A   25005.58155869  .00000049  00000+0  10338-4 0  9990
2 42955  86.3960 245.6997 0001965  87.2311 272.9109 14.34212683379153
IRIDIUM 100             
1 42956U 17061B   25006.20313483  .00000639  00000+0  22111-3 0  9995
2 42956  86.3958 245.3706 0001868  88.1180 272.0230 14.34215255379268
IRIDIUM 122             
1 42957U 17061C   25005.54350243  .00000129  00000+0  38890-4 0  9993
2 42957  86.3962 245.6450 0001723  87.5939 272.5454 14.34212695379154
IRIDIUM 129             
1 42958U 17061D   25006.19679355  .00000722  00000+0  25072-3 0  9990
2 42958  86.3958 245.4337 0002150  73.1183 287.0249 14.34215861379262
